[{"OBJECT_NAME":"STARLINK-32508","OBJECT_ID":"2024-224V","EPOCH":"2026-03-09T07:43:38.338464","MEAN_MOTION":15.27569462,"ECCENTRICITY":0.00010576,"INCLINATION":43.0002,"RA_OF_ASC_NODE":160.1881,"ARG_OF_PERICENTER":252.6792,"MEAN_ANOMALY":107.3944,"EPHEMERIS_TYPE":0,"CLASSIFICATION_TYPE":"U","NORAD_CAT_ID":62158,"ELEMENT_SET_NO":999,"REV_AT_EPOCH":7242,"BSTAR":0.00088221279,"MEAN_MOTION_DOT":0.00024086,"MEAN_MOTION_DDOT":0},{"OBJECT_NAME":"COSMOS 2251 DEB","OBJECT_ID":"1993-036BTX","EPOCH":"2026-02-28T17:34:44.973408","MEAN_MOTION":15.25753352,"ECCENTRICITY":0.00216382,"INCLINATION":73.9681,"RA_OF_ASC_NODE":229.3494,"ARG_OF_PERICENTER":13.6287,"MEAN_ANOMALY":346.5492,"EPHEMERIS_TYPE":0,"CLASSIFICATION_TYPE":"U","NORAD_CAT_ID":38487,"ELEMENT_SET_NO":999,"REV_AT_EPOCH":67986,"BSTAR":0.0024802785,"MEAN_MOTION_DOT":0.00064261,"MEAN_MOTION_DDOT":0}]
